HIMAWARI-8              
1 40267U 14060A   24261.97667479 -.00000285  00000+0  00000+0 0  9994
2 40267   0.0262 203.0053 0000863 347.9966 298.6368  1.00268849 36475
